STARLINK-31458          
1 59501U 24071T   25299.62371276  .00004279  00000+0  16490-3 0  9999
2 59501  43.0012  16.7296 0001403 262.8013  97.2679 15.27587205 87707
STARLINK-31357          
1 59502U 24071U   25299.92251993  .00017436  00000+0  64135-3 0  9994
2 59502  43.0042  15.5354 0001945 267.5748  92.4881 15.27593853 87743
STARLINK-31508          
1 59503U 24071V   25299.92637718  .00005019  00000+0  19176-3 0  9997
2 59503  43.0028  15.5635 0001376 271.1563  88.9131 15.27582032 87749
STARLINK-31535          
1 59504U 24071W   25299.96010343 -.00000055  00000+0  75182-5 0  9998
2 59504  43.0032  22.7380 0001540 271.2460  88.8215 15.27577057 87666
STARLINK-31533          
1 59505U 24071X   25299.93410214 -.00001282  00000+0 -37083-4 0  9998
2 59505  43.0025  15.6213 0000608  47.9508 312.1395 15.27576567 87746
STARLINK-31524          
1 59506U 24071Y   25299.90932469  .00003211  00000+0  12615-3 0  9992
2 59506  42.9994   8.3176 0001163 255.2769 104.7954 15.27578163 87826
STARLINK-31635          
1 59511U 24073A   25299.86744150  .00002714  00000+0  10810-3 0  9995
2 59511  42.9997 353.3999 0001129 251.9679 108.1050 15.27587234 85716
STARLINK-31650          
1 59512U 24073B   25299.44571603  .00001462  00000+0  62642-4 0  9991
2 59512  43.0030 356.2564 0001336 257.3865 102.6838 15.27587157 85643
STARLINK-31658          
1 59513U 24073C   25299.73526174 -.00000592  00000+0 -12016-4 0  9992
2 59513  43.0006 314.2486 0000850 275.8801  84.1953 15.27572650 86149
STARLINK-31669          
1 59515U 24073E   25299.22387491  .00000149  00000+0  14959-4 0  9999
2 59515  43.0004 357.1682 0001379 170.0125 190.0754 15.27579832 85611
STARLINK-31671          
1 59516U 24073F   25299.84831996 -.00000646  00000+0 -13961-4 0  9998
2 59516  42.9985 354.1148 0000500 272.6056  87.4739 15.27572801 85700
STARLINK-31674          
1 59517U 24073G   25299.43161299 -.00002272  00000+0 -73141-4 0  9999
2 59517  43.0071 356.1544 0001362 226.7210 133.3529 15.27547054 85643
STARLINK-31679          
1 59519U 24073J   25299.81634545  .00003483  00000+0  13599-3 0  9995
2 59519  43.0043 343.4916 0001482 271.2294  88.8388 15.27592905 85828
STARLINK-31370          
1 59520U 24073K   25299.84574378  .00000375  00000+0  23153-4 0  9992
2 59520  43.0019 354.0976 0001211 277.6561  82.4153 15.27581921 85707
STARLINK-31404          
1 59521U 24073L   25299.85603716 -.00000345  00000+0 -30084-5 0  9994
2 59521  43.0032 354.1711 0001024 271.7156  88.3578 15.27571687 85702
STARLINK-31453          
1 59522U 24073M   25299.81727390  .00000094  00000+0  12917-4 0  9999
2 59522  43.0025 336.2775 0000777 284.6965  75.3800 15.27587840 85905
