[{"OBJECT_NAME":"STARLINK-31458","OBJECT_ID":"2024-071T","EPOCH":"2025-10-26T14:58:08.782464","MEAN_MOTION":15.27587205,"ECCENTRICITY":0.00014038,"INCLINATION":43.0012,"RA_OF_ASC_NODE":16.7296,"ARG_OF_PERICENTER":262.8013,"MEAN_ANOMALY":97.2679,"EPHEMERIS_TYPE":0,"CLASSIFICATION_TYPE":"U","NORAD_CAT_ID":59501,"ELEMENT_SET_NO":999,"REV_AT_EPOCH":8770,"BSTAR":0.0001649028,"MEAN_MOTION_DOT":4.279e-5,"MEAN_MOTION_DDOT":0},{"OBJECT_NAME":"STARLINK-31357","OBJECT_ID":"2024-071U","EPOCH":"2025-10-26T22:08:25.721952","MEAN_MOTION":15.27593853,"ECCENTRICITY":0.00019454,"INCLINATION":43.0042,"RA_OF_ASC_NODE":15.5354,"ARG_OF_PERICENTER":267.5748,"MEAN_ANOMALY":92.4881,"EPHEMERIS_TYPE":0,"CLASSIFICATION_TYPE":"U","NORAD_CAT_ID":59502,"ELEMENT_SET_NO":999,"REV_AT_EPOCH":8774,"BSTAR":0.00064135004,"MEAN_MOTION_DOT":0.00017436,"MEAN_MOTION_DDOT":0},{"OBJECT_NAME":"STARLINK-31508","OBJECT_ID":"2024-071V","EPOCH":"2025-10-26T22:13:58.988352","MEAN_MOTION":15.27582032,"ECCENTRICITY":0.00013769,"INCLINATION":43.0028,"RA_OF_ASC_NODE":15.5635,"ARG_OF_PERICENTER":271.1563,"MEAN_ANOMALY":88.9131,"EPHEMERIS_TYPE":0,"CLASSIFICATION_TYPE":"U","NORAD_CAT_ID":59503,"ELEMENT_SET_NO":999,"REV_AT_EPOCH":8774,"BSTAR":0.00019175801,"MEAN_MOTION_DOT":5.019e-5,"MEAN_MOTION_DDOT":0},{"OBJECT_NAME":"STARLINK-31535","OBJECT_ID":"2024-071W","EPOCH":"2025-10-26T23:02:32.936352","MEAN_MOTION":15.27577057,"ECCENTRICITY":0.00015408,"INCLINATION":43.0032,"RA_OF_ASC_NODE":22.738,"ARG_OF_PERICENTER":271.246,"MEAN_ANOMALY":88.8215,"EPHEMERIS_TYPE":0,"CLASSIFICATION_TYPE":"U","NORAD_CAT_ID":59504,"ELEMENT_SET_NO":999,"REV_AT_EPOCH":8766,"BSTAR":7.518156e-6,"MEAN_MOTION_DOT":-5.5e-7,"MEAN_MOTION_DDOT":0},{"OBJECT_NAME":"STARLINK-31533","OBJECT_ID":"2024-071X","EPOCH":"2025-10-26T22:25:06.424896","MEAN_MOTION":15.27576567,"ECCENTRICITY":6.08e-5,"INCLINATION":43.0025,"RA_OF_ASC_NODE":15.6213,"ARG_OF_PERICENTER":47.9508,"MEAN_ANOMALY":312.1395,"EPHEMERIS_TYPE":0,"CLASSIFICATION_TYPE":"U","NORAD_CAT_ID":59505,"ELEMENT_SET_NO":999,"REV_AT_EPOCH":8774,"BSTAR":-3.7083439e-5,"MEAN_MOTION_DOT":-1.282e-5,"MEAN_MOTION_DDOT":0},{"OBJECT_NAME":"STARLINK-31524","OBJECT_ID":"2024-071Y","EPOCH":"2025-10-26T21:49:25.653216","MEAN_MOTION":15.27578163,"ECCENTRICITY":0.00011636,"INCLINATION":42.9994,"RA_OF_ASC_NODE":8.3176,"ARG_OF_PERICENTER":255.2769,"MEAN_ANOMALY":104.7954,"EPHEMERIS_TYPE":0,"CLASSIFICATION_TYPE":"U","NORAD_CAT_ID":59506,"ELEMENT_SET_NO":999,"REV_AT_EPOCH":8782,"BSTAR":0.00012614902,"MEAN_MOTION_DOT":3.211e-5,"MEAN_MOTION_DDOT":0},{"OBJECT_NAME":"STARLINK-31635","OBJECT_ID":"2024-073A","EPOCH":"2025-10-26T20:49:06.945600","MEAN_MOTION":15.27587234,"ECCENTRICITY":0.00011298,"INCLINATION":42.9997,"RA_OF_ASC_NODE":353.3999,"ARG_OF_PERICENTER":251.9679,"MEAN_ANOMALY":108.105,"EPHEMERIS_TYPE":0,"CLASSIFICATION_TYPE":"U","NORAD_CAT_ID":59511,"ELEMENT_SET_NO":999,"REV_AT_EPOCH":8571,"BSTAR":0.00010809638,"MEAN_MOTION_DOT":2.714e-5,"MEAN_MOTION_DDOT":0},{"OBJECT_NAME":"STARLINK-31650","OBJECT_ID":"2024-073B","EPOCH":"2025-10-26T10:41:49.864992","MEAN_MOTION":15.27587157,"ECCENTRICITY":0.00013367,"INCLINATION":43.003,"RA_OF_ASC_NODE":356.2564,"ARG_OF_PERICENTER":257.3865,"MEAN_ANOMALY":102.6838,"EPHEMERIS_TYPE":0,"CLASSIFICATION_TYPE":"U","NORAD_CAT_ID":59512,"ELEMENT_SET_NO":999,"REV_AT_EPOCH":8564,"BSTAR":6.2641855e-5,"MEAN_MOTION_DOT":1.462e-5,"MEAN_MOTION_DDOT":0},{"OBJECT_NAME":"STARLINK-31658","OBJECT_ID":"2024-073C","EPOCH":"2025-10-26T17:38:46.614336","MEAN_MOTION":15.2757265,"ECCENTRICITY":8.502e-5,"INCLINATION":43.0006,"RA_OF_ASC_NODE":314.2486,"ARG_OF_PERICENTER":275.8801,"MEAN_ANOMALY":84.1953,"EPHEMERIS_TYPE":0,"CLASSIFICATION_TYPE":"U","NORAD_CAT_ID":59513,"ELEMENT_SET_NO":999,"REV_AT_EPOCH":8614,"BSTAR":-1.2015826e-5,"MEAN_MOTION_DOT":-5.92e-6,"MEAN_MOTION_DDOT":0},{"OBJECT_NAME":"STARLINK-31669","OBJECT_ID":"2024-073E","EPOCH":"2025-10-26T05:22:22.792224","MEAN_MOTION":15.27579832,"ECCENTRICITY":0.0001379,"INCLINATION":43.0004,"RA_OF_ASC_NODE":357.1682,"ARG_OF_PERICENTER":170.0125,"MEAN_ANOMALY":190.0754,"EPHEMERIS_TYPE":0,"CLASSIFICATION_TYPE":"U","NORAD_CAT_ID":59515,"ELEMENT_SET_NO":999,"REV_AT_EPOCH":8561,"BSTAR":1.4959e-5,"MEAN_MOTION_DOT":1.49e-6,"MEAN_MOTION_DDOT":0},{"OBJECT_NAME":"STARLINK-31671","OBJECT_ID":"2024-073F","EPOCH":"2025-10-26T20:21:34.844544","MEAN_MOTION":15.27572801,"ECCENTRICITY":5.003e-5,"INCLINATION":42.9985,"RA_OF_ASC_NODE":354.1148,"ARG_OF_PERICENTER":272.6056,"MEAN_ANOMALY":87.4739,"EPHEMERIS_TYPE":0,"CLASSIFICATION_TYPE":"U","NORAD_CAT_ID":59516,"ELEMENT_SET_NO":999,"REV_AT_EPOCH":8570,"BSTAR":-1.3960687e-5,"MEAN_MOTION_DOT":-6.46e-6,"MEAN_MOTION_DDOT":0},{"OBJECT_NAME":"STARLINK-31674","OBJECT_ID":"2024-073G","EPOCH":"2025-10-26T10:21:31.362336","MEAN_MOTION":15.27547054,"ECCENTRICITY":0.00013621,"INCLINATION":43.0071,"RA_OF_ASC_NODE":356.1544,"ARG_OF_PERICENTER":226.721,"MEAN_ANOMALY":133.3529,"EPHEMERIS_TYPE":0,"CLASSIFICATION_TYPE":"U","NORAD_CAT_ID":59517,"ELEMENT_SET_NO":999,"REV_AT_EPOCH":8564,"BSTAR":-7.3140857e-5,"MEAN_MOTION_DOT":-2.272e-5,"MEAN_MOTION_DDOT":0},{"OBJECT_NAME":"STARLINK-31679","OBJECT_ID":"2024-073J","EPOCH":"2025-10-26T19:35:32.246880","MEAN_MOTION":15.27592905,"ECCENTRICITY":0.00014828,"INCLINATION":43.0043,"RA_OF_ASC_NODE":343.4916,"ARG_OF_PERICENTER":271.2294,"MEAN_ANOMALY":88.8388,"EPHEMERIS_TYPE":0,"CLASSIFICATION_TYPE":"U","NORAD_CAT_ID":59519,"ELEMENT_SET_NO":999,"REV_AT_EPOCH":8582,"BSTAR":0.00013599339,"MEAN_MOTION_DOT":3.483e-5,"MEAN_MOTION_DDOT":0},{"OBJECT_NAME":"STARLINK-31370","OBJECT_ID":"2024-073K","EPOCH":"2025-10-26T20:17:52.262592","MEAN_MOTION":15.27581921,"ECCENTRICITY":0.00012112,"INCLINATION":43.0019,"RA_OF_ASC_NODE":354.0976,"ARG_OF_PERICENTER":277.6561,"MEAN_ANOMALY":82.4153,"EPHEMERIS_TYPE":0,"CLASSIFICATION_TYPE":"U","NORAD_CAT_ID":59520,"ELEMENT_SET_NO":999,"REV_AT_EPOCH":8570,"BSTAR":2.3152662e-5,"MEAN_MOTION_DOT":3.75e-6,"MEAN_MOTION_DDOT":0},{"OBJECT_NAME":"STARLINK-31404","OBJECT_ID":"2024-073L","EPOCH":"2025-10-26T20:32:41.610624","MEAN_MOTION":15.27571687,"ECCENTRICITY":0.00010245,"INCLINATION":43.0032,"RA_OF_ASC_NODE":354.1711,"ARG_OF_PERICENTER":271.7156,"MEAN_ANOMALY":88.3578,"EPHEMERIS_TYPE":0,"CLASSIFICATION_TYPE":"U","NORAD_CAT_ID":59521,"ELEMENT_SET_NO":999,"REV_AT_EPOCH":8570,"BSTAR":-3.008432e-6,"MEAN_MOTION_DOT":-3.45e-6,"MEAN_MOTION_DDOT":0},{"OBJECT_NAME":"STARLINK-31453","OBJECT_ID":"2024-073M","EPOCH":"2025-10-26T19:36:52.464960","MEAN_MOTION":15.2758784,"ECCENTRICITY":7.774e-5,"INCLINATION":43.0025,"RA_OF_ASC_NODE":336.2775,"ARG_OF_PERICENTER":284.6965,"MEAN_ANOMALY":75.38,"EPHEMERIS_TYPE":0,"CLASSIFICATION_TYPE":"U","NORAD_CAT_ID":59522,"ELEMENT_SET_NO":999,"REV_AT_EPOCH":8590,"BSTAR":1.2916812e-5,"MEAN_MOTION_DOT":9.4e-7,"MEAN_MOTION_DDOT":0}]
